CCSDS_OMM_VERS = 2.0
CREATION_DATE  = 
ORIGINATOR     = 

OBJECT_NAME    = SL-16 R/B
OBJECT_ID      = 1998-043G
CENTER_NAME    = EARTH
REF_FRAME      = TEME
TIME_SYSTEM    = UTC
MEAN_ELEMENT_THEORY = SGP/SGP4

EPOCH          = 2026-02-19T20:09:28.766592
MEAN_MOTION    = 14.26045270
ECCENTRICITY   = .0010889
INCLINATION    = 98.8224
RA_OF_ASC_NODE = 4.0803
ARG_OF_PERICENTER = 68.2881
MEAN_ANOMALY   = 291.9457

EPHEMERIS_TYPE = 0
CLASSIFICATION_TYPE = U
NORAD_CAT_ID   = 25400
ELEMENT_SET_NO = 999
REV_AT_EPOCH   = 43644
BSTAR          = .41472E-4
MEAN_MOTION_DOT = .54E-6
MEAN_MOTION_DDOT = 0

CCSDS_OMM_VERS = 2.0
CREATION_DATE  = 
ORIGINATOR     = 

OBJECT_NAME    = SL-16 R/B
OBJECT_ID      = 1998-045B
CENTER_NAME    = EARTH
REF_FRAME      = TEME
TIME_SYSTEM    = UTC
MEAN_ELEMENT_THEORY = SGP/SGP4

EPOCH          = 2026-02-19T20:15:45.606240
MEAN_MOTION    = 14.16190680
ECCENTRICITY   = .0005821
INCLINATION    = 71.0095
RA_OF_ASC_NODE = 219.1006
ARG_OF_PERICENTER = 39.1196
MEAN_ANOMALY   = 321.0347

EPHEMERIS_TYPE = 0
CLASSIFICATION_TYPE = U
NORAD_CAT_ID   = 25407
ELEMENT_SET_NO = 999
REV_AT_EPOCH   = 42457
BSTAR          = .10055E-3
MEAN_MOTION_DOT = .151E-5
MEAN_MOTION_DDOT = 0

CCSDS_OMM_VERS = 2.0
CREATION_DATE  = 
ORIGINATOR     = 

OBJECT_NAME    = ISS (ZARYA)
OBJECT_ID      = 1998-067A
CENTER_NAME    = EARTH
REF_FRAME      = TEME
TIME_SYSTEM    = UTC
MEAN_ELEMENT_THEORY = SGP/SGP4

EPOCH          = 2026-02-19T19:53:28.694976
MEAN_MOTION    = 15.48149648
ECCENTRICITY   = .0008552
INCLINATION    = 51.6323
RA_OF_ASC_NODE = 160.6397
ARG_OF_PERICENTER = 112.9938
MEAN_ANOMALY   = 247.1953

EPHEMERIS_TYPE = 0
CLASSIFICATION_TYPE = U
NORAD_CAT_ID   = 25544
ELEMENT_SET_NO = 999
REV_AT_EPOCH   = 55368
BSTAR          = .11723307E-2
MEAN_MOTION_DOT = .62824E-3
MEAN_MOTION_DDOT = 0

CCSDS_OMM_VERS = 2.0
CREATION_DATE  = 
ORIGINATOR     = 

OBJECT_NAME    = CZ-4B R/B
OBJECT_ID      = 1999-025C
CENTER_NAME    = EARTH
REF_FRAME      = TEME
TIME_SYSTEM    = UTC
MEAN_ELEMENT_THEORY = SGP/SGP4

EPOCH          = 2026-02-20T02:12:58.457664
MEAN_MOTION    = 14.18261655
ECCENTRICITY   = .0037702
INCLINATION    = 98.6664
RA_OF_ASC_NODE = 95.7877
ARG_OF_PERICENTER = 37.0038
MEAN_ANOMALY   = 350.8363

EPHEMERIS_TYPE = 0
CLASSIFICATION_TYPE = U
NORAD_CAT_ID   = 25732
ELEMENT_SET_NO = 999
REV_AT_EPOCH   = 38567
BSTAR          = .43294E-4
MEAN_MOTION_DOT = .47E-6
MEAN_MOTION_DDOT = 0

CCSDS_OMM_VERS = 2.0
CREATION_DATE  = 
ORIGINATOR     = 

OBJECT_NAME    = OKEAN-O
OBJECT_ID      = 1999-039A
CENTER_NAME    = EARTH
REF_FRAME      = TEME
TIME_SYSTEM    = UTC
MEAN_ELEMENT_THEORY = SGP/SGP4

EPOCH          = 2026-02-20T03:28:56.817984
MEAN_MOTION    = 14.80304976
ECCENTRICITY   = .0001683
INCLINATION    = 97.9482
RA_OF_ASC_NODE = 111.2116
ARG_OF_PERICENTER = 78.7943
MEAN_ANOMALY   = 281.3458

EPHEMERIS_TYPE = 0
CLASSIFICATION_TYPE = U
NORAD_CAT_ID   = 25860
ELEMENT_SET_NO = 999
REV_AT_EPOCH   = 43179
BSTAR          = .85688E-4
MEAN_MOTION_DOT = .601E-5
MEAN_MOTION_DDOT = 0

CCSDS_OMM_VERS = 2.0
CREATION_DATE  = 
ORIGINATOR     = 

OBJECT_NAME    = SL-16 R/B
OBJECT_ID      = 1999-039B
CENTER_NAME    = EARTH
REF_FRAME      = TEME
TIME_SYSTEM    = UTC
MEAN_ELEMENT_THEORY = SGP/SGP4

EPOCH          = 2026-02-20T03:23:48.091776
MEAN_MOTION    = 14.81705045
ECCENTRICITY   = .0013822
INCLINATION    = 98.0006
RA_OF_ASC_NODE = 110.2608
ARG_OF_PERICENTER = 318.2283
MEAN_ANOMALY   = 41.7874

EPHEMERIS_TYPE = 0
CLASSIFICATION_TYPE = U
NORAD_CAT_ID   = 25861
ELEMENT_SET_NO = 999
REV_AT_EPOCH   = 43426
BSTAR          = .70686E-4
MEAN_MOTION_DOT = .503E-5
MEAN_MOTION_DDOT = 0

CCSDS_OMM_VERS = 2.0
CREATION_DATE  = 
ORIGINATOR     = 

OBJECT_NAME    = DELTA 2 R/B
OBJECT_ID      = 1999-041E
CENTER_NAME    = EARTH
REF_FRAME      = TEME
TIME_SYSTEM    = UTC
MEAN_ELEMENT_THEORY = SGP/SGP4

EPOCH          = 2026-02-20T02:20:13.612992
MEAN_MOTION    = 14.11770440
ECCENTRICITY   = .0502211
INCLINATION    = 51.7662
RA_OF_ASC_NODE = 11.5362
ARG_OF_PERICENTER = 296.4806
MEAN_ANOMALY   = 58.5450

EPHEMERIS_TYPE = 0
CLASSIFICATION_TYPE = U
NORAD_CAT_ID   = 25876
ELEMENT_SET_NO = 999
REV_AT_EPOCH   = 36054
BSTAR          = .27203E-3
MEAN_MOTION_DOT = .1456E-4
MEAN_MOTION_DDOT = 0

CCSDS_OMM_VERS = 2.0
CREATION_DATE  = 
ORIGINATOR     = 

OBJECT_NAME    = HELIOS 1B
OBJECT_ID      = 1999-064A
CENTER_NAME    = EARTH
REF_FRAME      = TEME
TIME_SYSTEM    = UTC
MEAN_ELEMENT_THEORY = SGP/SGP4

EPOCH          = 2026-02-20T03:48:40.574016
MEAN_MOTION    = 14.87620348
ECCENTRICITY   = .0002358
INCLINATION    = 98.1715
RA_OF_ASC_NODE = 312.8856
ARG_OF_PERICENTER = 99.1345
MEAN_ANOMALY   = 261.0137

EPHEMERIS_TYPE = 0
CLASSIFICATION_TYPE = U
NORAD_CAT_ID   = 25977
ELEMENT_SET_NO = 999
REV_AT_EPOCH   = 68265
BSTAR          = .18907E-3
MEAN_MOTION_DOT = .1661E-4
MEAN_MOTION_DDOT = 0

CCSDS_OMM_VERS = 2.0
CREATION_DATE  = 
ORIGINATOR     = 

OBJECT_NAME    = TERRA
OBJECT_ID      = 1999-068A
CENTER_NAME    = EARTH
REF_FRAME      = TEME
TIME_SYSTEM    = UTC
MEAN_ELEMENT_THEORY = SGP/SGP4

EPOCH          = 2026-02-20T02:35:36.301920
MEAN_MOTION    = 14.60994312
ECCENTRICITY   = .0001448
INCLINATION    = 97.9632
RA_OF_ASC_NODE = 105.2111
ARG_OF_PERICENTER = 202.9466
MEAN_ANOMALY   = 186.5275

EPHEMERIS_TYPE = 0
CLASSIFICATION_TYPE = U
NORAD_CAT_ID   = 25994
ELEMENT_SET_NO = 999
REV_AT_EPOCH   = 39251
BSTAR          = .85881E-4
MEAN_MOTION_DOT = .377E-5
MEAN_MOTION_DDOT = 0

CCSDS_OMM_VERS = 2.0
CREATION_DATE  = 
ORIGINATOR     = 

OBJECT_NAME    = SL-16 R/B
OBJECT_ID      = 2000-006B
CENTER_NAME    = EARTH
REF_FRAME      = TEME
TIME_SYSTEM    = UTC
MEAN_ELEMENT_THEORY = SGP/SGP4

EPOCH          = 2026-02-20T04:59:57.024096
MEAN_MOTION    = 14.15818370
ECCENTRICITY   = .0017876
INCLINATION    = 71.0022
RA_OF_ASC_NODE = 134.5957
ARG_OF_PERICENTER = 214.5018
MEAN_ANOMALY   = 145.4946

EPHEMERIS_TYPE = 0
CLASSIFICATION_TYPE = U
NORAD_CAT_ID   = 26070
ELEMENT_SET_NO = 999
REV_AT_EPOCH   = 34608
BSTAR          = .30501E-4
MEAN_MOTION_DOT = .12E-6
MEAN_MOTION_DDOT = 0

CCSDS_OMM_VERS = 2.0
CREATION_DATE  = 
ORIGINATOR     = 

OBJECT_NAME    = TITAN 4B R/B
OBJECT_ID      = 2000-047B
CENTER_NAME    = EARTH
REF_FRAME      = TEME
TIME_SYSTEM    = UTC
MEAN_ELEMENT_THEORY = SGP/SGP4

EPOCH          = 2026-02-20T03:17:25.880640
MEAN_MOTION    = 15.09395528
ECCENTRICITY   = .0037493
INCLINATION    = 67.9877
RA_OF_ASC_NODE = 89.8628
ARG_OF_PERICENTER = 56.6256
MEAN_ANOMALY   = 303.8471

EPHEMERIS_TYPE = 0
CLASSIFICATION_TYPE = U
NORAD_CAT_ID   = 26474
ELEMENT_SET_NO = 999
REV_AT_EPOCH   = 39026
BSTAR          = .17218E-3
MEAN_MOTION_DOT = .2666E-4
MEAN_MOTION_DDOT = 0

CCSDS_OMM_VERS = 2.0
CREATION_DATE  = 
ORIGINATOR     = 

OBJECT_NAME    = ENVISAT
OBJECT_ID      = 2002-009A
CENTER_NAME    = EARTH
REF_FRAME      = TEME
TIME_SYSTEM    = UTC
MEAN_ELEMENT_THEORY = SGP/SGP4

EPOCH          = 2026-02-19T20:58:02.113248
MEAN_MOTION    = 14.39029788
ECCENTRICITY   = .00013524
INCLINATION    = 98.3699
RA_OF_ASC_NODE = 4.8987
ARG_OF_PERICENTER = 87.4189
MEAN_ANOMALY   = 292.9048

EPHEMERIS_TYPE = 0
CLASSIFICATION_TYPE = U
NORAD_CAT_ID   = 27386
ELEMENT_SET_NO = 999
REV_AT_EPOCH   = 25661
BSTAR          = .50257544E-4
MEAN_MOTION_DOT = .112E-5
MEAN_MOTION_DDOT = 0

